[{"OBJECT_NAME":"STARLINK-2113","OBJECT_ID":"2021-005AV","EPOCH":"2026-03-09T22:00:01.999584","MEAN_MOTION":15.5817622,"ECCENTRICITY":0.00052189,"INCLINATION":53.0529,"RA_OF_ASC_NODE":15.2698,"ARG_OF_PERICENTER":117.6872,"MEAN_ANOMALY":84.8234,"EPHEMERIS_TYPE":0,"CLASSIFICATION_TYPE":"U","NORAD_CAT_ID":47392,"ELEMENT_SET_NO":999,"REV_AT_EPOCH":587,"BSTAR":0.0015913714,"MEAN_MOTION_DOT":0.00123694,"MEAN_MOTION_DDOT":0},{"OBJECT_NAME":"TRANSPORTER-11 OBJECT BF","OBJECT_ID":"2024-149BF","EPOCH":"2026-03-09T16:59:51.479808","MEAN_MOTION":15.59997231,"ECCENTRICITY":0.00034224,"INCLINATION":97.3818,"RA_OF_ASC_NODE":159.1799,"ARG_OF_PERICENTER":238.2846,"MEAN_ANOMALY":121.8078,"EPHEMERIS_TYPE":0,"CLASSIFICATION_TYPE":"U","NORAD_CAT_ID":60521,"ELEMENT_SET_NO":999,"REV_AT_EPOCH":8747,"BSTAR":0.00094090454,"MEAN_MOTION_DOT":0.00076484,"MEAN_MOTION_DDOT":0}]
